{
  "type": "FeatureCollection",
  "features": [
    {
      "type": "Feature",
      "properties": {
        "norad_id": 42988,
        "name": "SKYSAT-C10",
        "group": "resource",
        "lat": -28.52784639681784,
        "lon": -64.81020093091372,
        "alt_km": 476.7461769121219,
        "timestamp": "2025-12-14T09:36:22.692069+00:00",
        "meta_object_name": "SKYSAT-C10",
        "meta_object_id": "2017-068B",
        "meta_epoch": "2025-12-13T15:27:22.857984",
        "meta_mean_motion": 15.32088202,
        "meta_eccentricity": 0.00053668,
        "meta_inclination": 97.4254,
        "meta_ra_of_asc_node": 118.497,
        "meta_arg_of_pericenter": 101.0215,
        "meta_mean_anomaly": 259.163,
        "meta_ephemeris_type": 0,
        "meta_classification_type": "U",
        "meta_norad_cat_id": 42988,
        "meta_element_set_no": 999,
        "meta_rev_at_epoch": 45393,
        "meta_bstar": 0.0004356523,
        "meta_mean_motion_dot": 0.00013433,
        "meta_mean_motion_ddot": 0,
        "tle_line1": "1 42988U 17068B   25347.64401456  .00013433  00000+0  43565-3 0  9993",
        "tle_line2": "2 42988  97.4254 118.4970 0005366 101.0215 259.1630 15.32088202453935"
      },
      "geometry": {
        "type": "Point",
        "coordinates": [
          -64.81020093091372,
          -28.52784639681784
        ]
      }
    },
    {
      "type": "Feature",
      "properties": {
        "norad_id": 42989,
        "name": "SKYSAT-C9",
        "group": "resource",
        "lat": 77.57450410399893,
        "lon": 82.4143544336064,
        "alt_km": 443.05944992781224,
        "timestamp": "2025-12-14T09:36:22.692079+00:00",
        "meta_object_name": "SKYSAT-C9",
        "meta_object_id": "2017-068C",
        "meta_epoch": "2025-12-13T08:14:42.756288",
        "meta_mean_motion": 15.36075926,
        "meta_eccentricity": 0.00106414,
        "meta_inclination": 97.4181,
        "meta_ra_of_asc_node": 117.6018,
        "meta_arg_of_pericenter": 85.4429,
        "meta_mean_anomaly": 274.803,
        "meta_ephemeris_type": 0,
        "meta_classification_type": "U",
        "meta_norad_cat_id": 42989,
        "meta_element_set_no": 999,
        "meta_rev_at_epoch": 45417,
        "meta_bstar": 0.00060010096,
        "meta_mean_motion_dot": 0.00021075,
        "meta_mean_motion_ddot": 0,
        "tle_line1": "1 42989U 17068C   25347.34355042  .00021075  00000+0  60010-3 0  9995",
        "tle_line2": "2 42989  97.4181 117.6018 0010641  85.4429 274.8030 15.36075926454171"
      },
      "geometry": {
        "type": "Point",
        "coordinates": [
          82.4143544336064,
          77.57450410399893
        ]
      }
    },
    {
      "type": "Feature",
      "properties": {
        "norad_id": 42990,
        "name": "SKYSAT-C8",
        "group": "resource",
        "lat": 31.728840805922257,
        "lon": 113.78028875509868,
        "alt_km": 464.5762877240686,
        "timestamp": "2025-12-14T09:36:22.692089+00:00",
        "meta_object_name": "SKYSAT-C8",
        "meta_object_id": "2017-068D",
        "meta_epoch": "2025-12-13T14:40:03.711648",
        "meta_mean_motion": 15.32945642,
        "meta_eccentricity": 0.00015507,
        "meta_inclination": 97.4275,
        "meta_ra_of_asc_node": 117.6146,
        "meta_arg_of_pericenter": 344.4356,
        "meta_mean_anomaly": 15.6838,
        "meta_ephemeris_type": 0,
        "meta_classification_type": "U",
        "meta_norad_cat_id": 42990,
        "meta_element_set_no": 999,
        "meta_rev_at_epoch": 45384,
        "meta_bstar": 0.00042338522,
        "meta_mean_motion_dot": 0.00013403,
        "meta_mean_motion_ddot": 0,
        "tle_line1": "1 42990U 17068D   25347.61115407  .00013403  00000+0  42339-3 0  9996",
        "tle_line2": "2 42990  97.4275 117.6146 0001550 344.4356  15.6838 15.32945642453842"
      },
      "geometry": {
        "type": "Point",
        "coordinates": [
          113.78028875509868,
          31.728840805922257
        ]
      }
    },
    {
      "type": "Feature",
      "properties": {
        "norad_id": 42991,
        "name": "SKYSAT-C7",
        "group": "resource",
        "lat": -63.05679660723833,
        "lon": -75.42709701298672,
        "alt_km": 481.0435486887782,
        "timestamp": "2025-12-14T09:36:22.692099+00:00",
        "meta_object_name": "SKYSAT-C7",
        "meta_object_id": "2017-068E",
        "meta_epoch": "2025-12-13T15:18:19.915200",
        "meta_mean_motion": 15.3235097,
        "meta_eccentricity": 0.00075959,
        "meta_inclination": 97.4284,
        "meta_ra_of_asc_node": 118.682,
        "meta_arg_of_pericenter": 54.1074,
        "meta_mean_anomaly": 306.0871,
        "meta_ephemeris_type": 0,
        "meta_classification_type": "U",
        "meta_norad_cat_id": 42991,
        "meta_element_set_no": 999,
        "meta_rev_at_epoch": 45391,
        "meta_bstar": 0.00042652503,
        "meta_mean_motion_dot": 0.00013264,
        "meta_mean_motion_ddot": 0,
        "tle_line1": "1 42991U 17068E   25347.63773050  .00013264  00000+0  42653-3 0  9997",
        "tle_line2": "2 42991  97.4284 118.6820 0007595  54.1074 306.0871 15.32350970453916"
      },
      "geometry": {
        "type": "Point",
        "coordinates": [
          -75.42709701298672,
          -63.05679660723833
        ]
      }
    },
    {
      "type": "Feature",
      "properties": {
        "norad_id": 42992,
        "name": "SKYSAT-C6",
        "group": "resource",
        "lat": -4.235278441295209,
        "lon": 120.43789137103327,
        "alt_km": 474.3295787479892,
        "timestamp": "2025-12-14T09:36:22.692109+00:00",
        "meta_object_name": "SKYSAT-C6",
        "meta_object_id": "2017-068F",
        "meta_epoch": "2025-12-13T14:48:28.626336",
        "meta_mean_motion": 15.31512646,
        "meta_eccentricity": 0.00051473,
        "meta_inclination": 97.4318,
        "meta_ra_of_asc_node": 119.0988,
        "meta_arg_of_pericenter": 79.6968,
        "meta_mean_anomaly": 280.4854,
        "meta_ephemeris_type": 0,
        "meta_classification_type": "U",
        "meta_norad_cat_id": 42992,
        "meta_element_set_no": 999,
        "meta_rev_at_epoch": 45389,
        "meta_bstar": 0.00041488636,
        "meta_mean_motion_dot": 0.00012559,
        "meta_mean_motion_ddot": 0,
        "tle_line1": "1 42992U 17068F   25347.61699799  .00012559  00000+0  41489-3 0  9995",
        "tle_line2": "2 42992  97.4318 119.0988 0005147  79.6968 280.4854 15.31512646453892"
      },
      "geometry": {
        "type": "Point",
        "coordinates": [
          120.43789137103327,
          -4.235278441295209
        ]
      }
    },
    {
      "type": "Feature",
      "properties": {
        "norad_id": 43111,
        "name": "CARTOSAT-2F",
        "group": "resource",
        "lat": 29.01372141627089,
        "lon": 41.859336177982705,
        "alt_km": 506.83349987697875,
        "timestamp": "2025-12-14T09:36:22.692118+00:00",
        "meta_object_name": "CARTOSAT-2F",
        "meta_object_id": "2018-004A",
        "meta_epoch": "2025-12-13T16:05:25.063872",
        "meta_mean_motion": 15.19294081,
        "meta_eccentricity": 0.00010808,
        "meta_inclination": 97.4317,
        "meta_ra_of_asc_node": 45.2928,
        "meta_arg_of_pericenter": 136.8029,
        "meta_mean_anomaly": 223.3291,
        "meta_ephemeris_type": 0,
        "meta_classification_type": "U",
        "meta_norad_cat_id": 43111,
        "meta_element_set_no": 999,
        "meta_rev_at_epoch": 43916,
        "meta_bstar": 0.00044153573,
        "meta_mean_motion_dot": 9.255e-05,
        "meta_mean_motion_ddot": 0,
        "tle_line1": "1 43111U 18004A   25347.67042898  .00009255  00000+0  44154-3 0  9999",
        "tle_line2": "2 43111  97.4317  45.2928 0001080 136.8029 223.3291 15.19294081439166"
      },
      "geometry": {
        "type": "Point",
        "coordinates": [
          41.859336177982705,
          29.01372141627089
        ]
      }
    },
    {
      "type": "Feature",
      "properties": {
        "norad_id": 43259,
        "name": "GAOFEN-1 02",
        "group": "resource",
        "lat": -77.19686042427539,
        "lon": -172.50395806657363,
        "alt_km": 647.1389692305193,
        "timestamp": "2025-12-14T09:36:22.692129+00:00",
        "meta_object_name": "GAOFEN-1 02",
        "meta_object_id": "2018-031A",
        "meta_epoch": "2025-12-13T16:10:00.290208",
        "meta_mean_motion": 14.76421687,
        "meta_eccentricity": 0.0001771,
        "meta_inclination": 98.0805,
        "meta_ra_of_asc_node": 45.4632,
        "meta_arg_of_pericenter": 213.7808,
        "meta_mean_anomaly": 146.3288,
        "meta_ephemeris_type": 0,
        "meta_classification_type": "U",
        "meta_norad_cat_id": 43259,
        "meta_element_set_no": 999,
        "meta_rev_at_epoch": 41532,
        "meta_bstar": 0.00034431811,
        "meta_mean_motion_dot": 2.342e-05,
        "meta_mean_motion_ddot": 0,
        "tle_line1": "1 43259U 18031A   25347.67361447  .00002342  00000+0  34432-3 0  9994",
        "tle_line2": "2 43259  98.0805  45.4632 0001771 213.7808 146.3288 14.76421687415327"
      },
      "geometry": {
        "type": "Point",
        "coordinates": [
          -172.50395806657363,
          -77.19686042427539
        ]
      }
    }
  ]
}